ORBCOMM FM24            
1 25478U 98053D   25169.34854072  .00000766  00000+0  29684-3 0  9997
2 25478  45.0083 263.5913 0004158 230.4111 129.6371 14.38105947397614
ORBCOMM FM25            
1 25479U 98053E   25169.52831181  .00000729  00000+0  28489-3 0  9995
2 25479  45.0072 261.0095 0006411 243.0546 116.9647 14.38080606397937
ORBCOMM FM26            
1 25480U 98053F   25169.47115488  .00000546  00000+0  22923-3 0  9990
2 25480  45.0067 257.7477 0007890 259.2423 100.7537 14.37140344397837
ORBCOMM FM27            
1 25481U 98053G   25169.44653157  .00000750  00000+0  29182-3 0  9999
2 25481  45.0054 261.6001 0002738 231.2317 128.8286 14.38110045397859
ORBCOMM FM28            
1 25482U 98053H   25169.34507376  .00000530  00000+0  21880-3 0  9993
2 25482  45.0036 199.5788 0006660 290.0891  69.9240 14.38295250398521
ORBCOMM FM30            
1 25980U 99065A   25169.46103799  .00000690  00000+0  27632-3 0  9992
2 25980  45.0318  83.6844 0007627   8.9517 351.1466 14.37304508334632
ORBCOMM FM31            
1 25981U 99065B   25169.43437260  .00000742  00000+0  29425-3 0  9993
2 25981  45.0232  77.2995 0004696  27.4031 332.7065 14.37242842334186
ORBCOMM FM32            
1 25982U 99065C   25169.48168949  .00000658  00000+0  27129-3 0  9999
2 25982  45.0157  93.6624 0006984  24.5988 335.5192 14.36287595334786
